{
  "norad_id": 59084,
  "name": "STARLINK-31261",
  "history": [
    {
      "epoch": "2026-03-28T17:50:12.696000Z",
      "apogee_km": 483.4088537974367,
      "perigee_km": 482.64328522214055,
      "latitude_deg": 2.166398639962599e-05,
      "longitude_deg": 109.54275342837468,
      "height_km": 482.9179187293772,
      "semi_major_axis_km": 6861.163069509788,
      "eccentricity": 5.579e-05,
      "inclination_deg": 42.999,
      "raan_deg": 203.2549,
      "arg_perigee_deg": 252.3518,
      "mean_anomaly_deg": 107.7273,
      "mean_motion_rev_day": 15.2758769
    },
    {
      "epoch": "2026-03-29T00:06:51.476544Z",
      "apogee_km": 483.36949234046824,
      "perigee_km": 482.78354470598606,
      "latitude_deg": -7.965525286323162e-06,
      "longitude_deg": 13.645230870616322,
      "height_km": 482.9232698350627,
      "semi_major_axis_km": 6861.213518523226,
      "eccentricity": 4.27e-05,
      "inclination_deg": 42.9986,
      "raan_deg": 201.7768,
      "arg_perigee_deg": 255.9557,
      "mean_anomaly_deg": 104.1247,
      "mean_motion_rev_day": 15.27570842
    },
    {
      "epoch": "2026-03-29T23:39:10.815840Z",
      "apogee_km": 484.37155145591623,
      "perigee_km": 481.6860911534586,
      "latitude_deg": 1.608696050849563e-05,
      "longitude_deg": 14.059676340203941,
      "height_km": 482.5117218035228,
      "semi_major_axis_km": 6861.165821304688,
      "eccentricity": 0.0001957,
      "inclination_deg": 43.0014,
      "raan_deg": 196.2385,
      "arg_perigee_deg": 282.6653,
      "mean_anomaly_deg": 77.398,
      "mean_motion_rev_day": 15.27586771
    },
    {
      "epoch": "2026-03-29T23:39:10.816704Z",
      "apogee_km": 484.37175729089176,
      "perigee_km": 481.685885318484,
      "latitude_deg": 1.826960175475886e-05,
      "longitude_deg": 14.059675057843988,
      "height_km": 482.5116878358583,
      "semi_major_axis_km": 6861.165821304688,
      "eccentricity": 0.00019573,
      "inclination_deg": 43.0015,
      "raan_deg": 196.2385,
      "arg_perigee_deg": 282.6653,
      "mean_anomaly_deg": 77.398,
      "mean_motion_rev_day": 15.27586771
    },
    {
      "epoch": "2026-03-30T16:54:55.980576Z",
      "apogee_km": 483.5016979053735,
      "perigee_km": 482.6382836176572,
      "latitude_deg": -1.2554570171729856e-06,
      "longitude_deg": 110.35032470526512,
      "height_km": 482.46343312784006,
      "semi_major_axis_km": 6861.206990761515,
      "eccentricity": 6.292e-05,
      "inclination_deg": 42.9999,
      "raan_deg": 192.1763,
      "arg_perigee_deg": 332.3203,
      "mean_anomaly_deg": 27.7615,
      "mean_motion_rev_day": 15.27573022
    },
    {
      "epoch": "2026-03-31T16:27:14.900832Z",
      "apogee_km": 483.9393220198299,
      "perigee_km": 482.0799512812973,
      "latitude_deg": 2.6004231325655426e-05,
      "longitude_deg": 110.76662518078858,
      "height_km": 482.59508560793716,
      "semi_major_axis_km": 6861.146636650563,
      "eccentricity": 0.0001355,
      "inclination_deg": 43.0005,
      "raan_deg": 186.6381,
      "arg_perigee_deg": 281.8726,
      "mean_anomaly_deg": 78.1974,
      "mean_motion_rev_day": 15.27593178
    },
    {
      "epoch": "2026-04-01T06:34:43.739904Z",
      "apogee_km": 483.72777928702,
      "perigee_km": 482.620363680081,
      "latitude_deg": -3.5018553578772214e-05,
      "longitude_deg": -105.00758180951784,
      "height_km": 482.5093887520161,
      "semi_major_axis_km": 6861.31107148355,
      "eccentricity": 8.07e-05,
      "inclination_deg": 43.0005,
      "raan_deg": 183.3142,
      "arg_perigee_deg": 322.7409,
      "mean_anomaly_deg": 37.3386,
      "mean_motion_rev_day": 15.27538264
    },
    {
      "epoch": "2026-04-02T13:57:47.801664Z",
      "apogee_km": 483.4073883924566,
      "perigee_km": 482.5596283424429,
      "latitude_deg": 4.766667612936467e-06,
      "longitude_deg": 135.5510238812451,
      "height_km": 482.5621195020071,
      "semi_major_axis_km": 6861.1205083674495,
      "eccentricity": 6.178e-05,
      "inclination_deg": 43.0008,
      "raan_deg": 175.9286,
      "arg_perigee_deg": 297.7628,
      "mean_anomaly_deg": 62.3161,
      "mean_motion_rev_day": 15.27601904
    },
    {
      "epoch": "2026-04-03T15:04:20.510688Z",
      "apogee_km": 484.3508421792785,
      "perigee_km": 481.8684431439633,
      "latitude_deg": -4.941950002941827e-05,
      "longitude_deg": 111.9732852333236,
      "height_km": 482.74343562317796,
      "semi_major_axis_km": 6861.246642661621,
      "eccentricity": 0.0001809,
      "inclination_deg": 43.0039,
      "raan_deg": 170.0184,
      "arg_perigee_deg": 276.6478,
      "mean_anomaly_deg": 83.4167,
      "mean_motion_rev_day": 15.2755978
    },
    {
      "epoch": "2026-04-04T20:53:16.325376Z",
      "apogee_km": 484.476617578066,
      "perigee_km": 481.5331877018325,
      "latitude_deg": 1.3082664498505907e-05,
      "longitude_deg": 16.50051058206789,
      "height_km": 482.51762169536846,
      "semi_major_axis_km": 6861.141902639949,
      "eccentricity": 0.0002145,
      "inclination_deg": 43.0027,
      "raan_deg": 163.0026,
      "arg_perigee_deg": 280.3683,
      "mean_anomaly_deg": 79.6927,
      "mean_motion_rev_day": 15.27594759
    },
    {
      "epoch": "2026-04-05T04:44:05.535456Z",
      "apogee_km": 483.72229517174674,
      "perigee_km": 482.534061268183,
      "latitude_deg": 3.0914605997242786e-05,
      "longitude_deg": -103.36917783093179,
      "height_km": 483.2294795055919,
      "semi_major_axis_km": 6861.265178219965,
      "eccentricity": 8.659e-05,
      "inclination_deg": 43.0006,
      "raan_deg": 161.1602,
      "arg_perigee_deg": 123.3536,
      "mean_anomaly_deg": 236.7399,
      "mean_motion_rev_day": 15.2755359
    },
    {
      "epoch": "2026-04-06T04:16:26.741856Z",
      "apogee_km": 483.7081313249091,
      "perigee_km": 482.5916627210245,
      "latitude_deg": -9.182543741622761e-06,
      "longitude_deg": -102.9625040495344,
      "height_km": 483.30377303699527,
      "semi_major_axis_km": 6861.2868970229665,
      "eccentricity": 8.136e-05,
      "inclination_deg": 43.0012,
      "raan_deg": 155.622,
      "arg_perigee_deg": 132.7622,
      "mean_anomaly_deg": 227.3298,
      "mean_motion_rev_day": 15.27546337
    },
    {
      "epoch": "2026-04-07T10:05:23.360064Z",
      "apogee_km": 483.8992543891609,
      "perigee_km": 482.1654368955169,
      "latitude_deg": 3.2702521936608534e-06,
      "longitude_deg": 161.55630834912463,
      "height_km": 482.6988486180935,
      "semi_major_axis_km": 6861.169345642339,
      "eccentricity": 0.00012635,
      "inclination_deg": 42.9995,
      "raan_deg": 148.6012,
      "arg_perigee_deg": 277.2921,
      "mean_anomaly_deg": 82.7787,
      "mean_motion_rev_day": 15.27585594
    },
    {
      "epoch": "2026-04-08T09:37:44.724576Z",
      "apogee_km": 483.7069522635429,
      "perigee_km": 482.3709440829134,
      "latitude_deg": 4.351935797336975e-05,
      "longitude_deg": 161.96220615065837,
      "height_km": 482.7635209968621,
      "semi_major_axis_km": 6861.175948173228,
      "eccentricity": 9.736e-05,
      "inclination_deg": 43.0006,
      "raan_deg": 143.0628,
      "arg_perigee_deg": 274.45,
      "mean_anomaly_deg": 85.6241,
      "mean_motion_rev_day": 15.27583389
    },
    {
      "epoch": "2026-04-09T09:10:05.128320Z",
      "apogee_km": 483.92328572223505,
      "perigee_km": 482.1318356554393,
      "latitude_deg": 3.402468376458566e-05,
      "longitude_deg": 162.37146504143666,
      "height_km": 482.8746664529599,
      "semi_major_axis_km": 6861.164560688837,
      "eccentricity": 0.00013055,
      "inclination_deg": 43.0019,
      "raan_deg": 137.5238,
      "arg_perigee_deg": 265.4993,
      "mean_anomaly_deg": 94.571,
      "mean_motion_rev_day": 15.27587192
    },
    {
      "epoch": "2026-04-10T03:59:57.734880Z",
      "apogee_km": 484.01916758305015,
      "perigee_km": 482.08733085648055,
      "latitude_deg": -2.184702236682821e-05,
      "longitude_deg": -125.30306390675936,
      "height_km": 482.84598578011907,
      "semi_major_axis_km": 6861.190249219765,
      "eccentricity": 0.00014078,
      "inclination_deg": 43.0013,
      "raan_deg": 133.0919,
      "arg_perigee_deg": 269.0578,
      "mean_anomaly_deg": 91.0112,
      "mean_motion_rev_day": 15.27578613
    },
    {
      "epoch": "2026-04-11T11:23:05.754624Z",
      "apogee_km": 483.9852382692834,
      "perigee_km": 482.1354594640288,
      "latitude_deg": -2.6425705071241238e-05,
      "longitude_deg": 115.23925369367107,
      "height_km": 482.8872875706366,
      "semi_major_axis_km": 6861.197348866655,
      "eccentricity": 0.0001348,
      "inclination_deg": 43.0015,
      "raan_deg": 125.7066,
      "arg_perigee_deg": 266.8937,
      "mean_anomaly_deg": 93.176,
      "mean_motion_rev_day": 15.27576242
    },
    {
      "epoch": "2026-04-13T07:19:27.453504Z",
      "apogee_km": 483.8750013768522,
      "perigee_km": 482.18646799734506,
      "latitude_deg": 4.244820721487947e-05,
      "longitude_deg": 164.0050885631227,
      "height_km": 482.93910940129814,
      "semi_major_axis_km": 6861.167734687098,
      "eccentricity": 0.00012305,
      "inclination_deg": 43.0025,
      "raan_deg": 115.3673,
      "arg_perigee_deg": 261.0343,
      "mean_anomaly_deg": 99.037,
      "mean_motion_rev_day": 15.27586132
    },
    {
      "epoch": "2026-04-14T10:00:08.448480Z",
      "apogee_km": 483.9634327781241,
      "perigee_km": 482.1885741983824,
      "latitude_deg": 3.487424549790719e-05,
      "longitude_deg": 116.46184037071572,
      "height_km": 482.8765133296366,
      "semi_major_axis_km": 6861.213003488253,
      "eccentricity": 0.00012934,
      "inclination_deg": 43.0035,
      "raan_deg": 109.0905,
      "arg_perigee_deg": 268.4817,
      "mean_anomaly_deg": 91.5887,
      "mean_motion_rev_day": 15.27571014
    }
  ]
}